[{"OBJECT_NAME":"YAOGAN-35 04A","OBJECT_ID":"2022-100A","EPOCH":"2026-03-06T19:06:06.057216","MEAN_MOTION":15.2292121,"ECCENTRICITY":0.00089031,"INCLINATION":35.0121,"RA_OF_ASC_NODE":335.6537,"ARG_OF_PERICENTER":77.9263,"MEAN_ANOMALY":282.2449,"EPHEMERIS_TYPE":0,"CLASSIFICATION_TYPE":"U","NORAD_CAT_ID":53522,"ELEMENT_SET_NO":999,"REV_AT_EPOCH":19764,"BSTAR":1.9251867e-5,"MEAN_MOTION_DOT":4.25e-6,"MEAN_MOTION_DDOT":0},{"OBJECT_NAME":"MONITOR-3 (RS58S)","OBJECT_ID":"2023-091Q","EPOCH":"2026-03-09T23:24:02.583360","MEAN_MOTION":15.25747617,"ECCENTRICITY":0.0013676,"INCLINATION":97.5199,"RA_OF_ASC_NODE":131.7909,"ARG_OF_PERICENTER":91.0881,"MEAN_ANOMALY":269.1924,"EPHEMERIS_TYPE":0,"CLASSIFICATION_TYPE":"U","NORAD_CAT_ID":57180,"ELEMENT_SET_NO":999,"REV_AT_EPOCH":14915,"BSTAR":0.00054974842,"MEAN_MOTION_DOT":0.00014004,"MEAN_MOTION_DDOT":0}]
